FLOCK 3P-58             
1 41977U 17008AF  22249.68350618  .00062817  00000+0  14502-2 0  9997
2 41977  97.2703 315.7658 0005336 298.4435  61.6275 15.42308280309591
